[{"OBJECT_NAME":"STARLINK-34952","OBJECT_ID":"2025-175Z","EPOCH":"2026-03-09T14:51:23.690880","MEAN_MOTION":15.05637468,"ECCENTRICITY":0.0002358,"INCLINATION":97.6018,"RA_OF_ASC_NODE":302.6484,"ARG_OF_PERICENTER":68.2368,"MEAN_ANOMALY":291.9109,"EPHEMERIS_TYPE":0,"CLASSIFICATION_TYPE":"U","NORAD_CAT_ID":65197,"ELEMENT_SET_NO":999,"REV_AT_EPOCH":3263,"BSTAR":0.00046386,"MEAN_MOTION_DOT":6.637e-5,"MEAN_MOTION_DDOT":0},{"OBJECT_NAME":"CZ-4B DEB","OBJECT_ID":"2008-053M","EPOCH":"2026-03-05T07:18:48.921696","MEAN_MOTION":15.08195439,"ECCENTRICITY":0.0017401,"INCLINATION":97.8281,"RA_OF_ASC_NODE":90.6528,"ARG_OF_PERICENTER":258.7901,"MEAN_ANOMALY":101.1371,"EPHEMERIS_TYPE":0,"CLASSIFICATION_TYPE":"U","NORAD_CAT_ID":44593,"ELEMENT_SET_NO":999,"REV_AT_EPOCH":67199,"BSTAR":0.00019653,"MEAN_MOTION_DOT":2.982e-5,"MEAN_MOTION_DDOT":0}]
